[{"OBJECT_NAME":"QIANFAN-94","OBJECT_ID":"2025-233D","EPOCH":"2026-03-09T21:26:02.178528","MEAN_MOTION":13.5099216,"ECCENTRICITY":0.00020968,"INCLINATION":88.9945,"RA_OF_ASC_NODE":53.1459,"ARG_OF_PERICENTER":87.2401,"MEAN_ANOMALY":272.8991,"EPHEMERIS_TYPE":0,"CLASSIFICATION_TYPE":"U","NORAD_CAT_ID":66036,"ELEMENT_SET_NO":999,"REV_AT_EPOCH":1982,"BSTAR":7.1348451e-5,"MEAN_MOTION_DOT":5.8e-7,"MEAN_MOTION_DDOT":0},{"OBJECT_NAME":"TRANSIT 5B-1","OBJECT_ID":"1963-038B","EPOCH":"2026-03-09T17:40:53.352768","MEAN_MOTION":13.44667877,"ECCENTRICITY":0.00404834,"INCLINATION":89.973,"RA_OF_ASC_NODE":333.2522,"ARG_OF_PERICENTER":321.4947,"MEAN_ANOMALY":38.3314,"EPHEMERIS_TYPE":0,"CLASSIFICATION_TYPE":"U","NORAD_CAT_ID":670,"ELEMENT_SET_NO":999,"REV_AT_EPOCH":6082,"BSTAR":0.00016164744,"MEAN_MOTION_DOT":1.04e-6,"MEAN_MOTION_DDOT":0}]
